[{"OBJECT_NAME":"STARLINK-32439","OBJECT_ID":"2024-193E","EPOCH":"2026-03-09T10:32:17.355264","MEAN_MOTION":15.30197118,"ECCENTRICITY":0.00011892,"INCLINATION":53.1591,"RA_OF_ASC_NODE":92.4983,"ARG_OF_PERICENTER":105.7947,"MEAN_ANOMALY":254.3185,"EPHEMERIS_TYPE":0,"CLASSIFICATION_TYPE":"U","NORAD_CAT_ID":61665,"ELEMENT_SET_NO":999,"REV_AT_EPOCH":7648,"BSTAR":1.14186e-7,"MEAN_MOTION_DOT":-3.56e-6,"MEAN_MOTION_DDOT":0},{"OBJECT_NAME":"COSMOS 2251 DEB","OBJECT_ID":"1993-036BTX","EPOCH":"2026-02-28T17:34:44.973408","MEAN_MOTION":15.25753352,"ECCENTRICITY":0.00216382,"INCLINATION":73.9681,"RA_OF_ASC_NODE":229.3494,"ARG_OF_PERICENTER":13.6287,"MEAN_ANOMALY":346.5492,"EPHEMERIS_TYPE":0,"CLASSIFICATION_TYPE":"U","NORAD_CAT_ID":38487,"ELEMENT_SET_NO":999,"REV_AT_EPOCH":67986,"BSTAR":0.0024802785,"MEAN_MOTION_DOT":0.00064261,"MEAN_MOTION_DDOT":0}]
